NORAD_CAT_ID,OBJECT_NAME,OBJECT_TYPE,EPOCH,MEAN_MOTION,ECCENTRICITY,INCLINATION,RA_OF_ASC_NODE,ARG_OF_PERICENTER,MEAN_ANOMALY,BSTAR,MEAN_MOTION_DOT,MEAN_MOTION_DDOT,TLE_LINE0,TLE_LINE1,TLE_LINE2,SEMIMAJOR_AXIS,PERIOD,APOGEE,PERIGEE,DECAYED
51989.0,STARLINK-3642,PAYLOAD,2022-04-01 20:00:01,15.72937094,0.0001195,53.2175,24.5613,102.521,149.8615,-0.0056275,-0.00718086,0.0,0 STARLINK-3642,1 51989U 22025AK  22091.83334491 -.00718086  00000-0 -56275-2 0  9991,2 51989  53.2175  24.5613 0001195 102.5210 149.8615 15.72937094  4943,6728.645,91.548,351.314,349.706,0.0
51989.0,STARLINK-3642,PAYLOAD,2022-04-01 22:00:00,15.72811092,0.000101,53.2176,24.1491,96.6498,267.865,-0.0056896,-0.00721726,0.0,0 STARLINK-3642,1 51989U 22025AK  22091.91667824 -.00721726  00000-0 -56896-2 0  9993,2 51989  53.2176  24.1491 0001010  96.6498 267.8650 15.72811092  3691,6729.004,91.556,351.5490000000001,350.19,0.0
51989.0,STARLINK-3642,PAYLOAD,2022-04-02 20:00:01,15.71406589,0.000119,53.2175,19.6131,94.7147,60.7344,-0.0059993,-0.00717138,0.0,0 STARLINK-3642,1 51989U 22025AK  22092.83334491 -.00717138  00000-0 -59993-2 0  9999,2 51989  53.2175  19.6131 0001190  94.7147  60.7344 15.71406589  5095,6733.013000000001,91.638,355.67900000000014,354.077,0.0
51989.0,STARLINK-3642,PAYLOAD,2022-04-02 22:00:01,15.71279852,0.0001183,53.2176,19.2019,100.1161,167.0713,-0.0060502,-0.00719167,0.0,0 STARLINK-3642,1 51989U 22025AK  22092.91668981 -.00719167  00000-0 -60502-2 0  9994,2 51989  53.2176  19.2019 0001183 100.1161 167.0713 15.71279852  3716,6733.375,91.645,356.037,354.444,0.0
51989.0,STARLINK-3642,PAYLOAD,2022-04-03 20:00:01,15.69876951,0.0001027,53.2177,14.6762,91.2563,321.8094,-0.0064046999999999,-0.0071771,0.0,0 STARLINK-3642,1 51989U 22025AK  22093.83335648 -.00717710  00000-0 -64047-2 0  9997,2 51989  53.2177  14.6762 0001027  91.2563 321.8094 15.69876951  5257,6737.386,91.727,359.9430000000001,358.559,0.0
51989.0,STARLINK-3642,PAYLOAD,2022-04-03 22:00:00,15.69748986,0.000118,53.2175,14.2659,84.435,79.7789,-0.0064334,-0.00717159,0.0,0 STARLINK-3642,1 51989U 22025AK  22093.91667824 -.00717159  00000-0 -64334-2 0  9996,2 51989  53.2175  14.2659 0001180  84.4350  79.7789 15.69748986  3696,6737.752,91.734,360.412,358.82199999999995,0.0
51989.0,STARLINK-3642,PAYLOAD,2022-04-04 14:00:01,15.6872771,0.0001034,53.2173,10.9807,101.8742,230.6711,-0.0066909,-0.00714981,0.0,0 STARLINK-3642,1 51989U 22025AK  22094.58334491 -.00714981  00000-0 -66909-2 0  9991,2 51989  53.2173  10.9807 0001034 101.8742 230.6711 15.68727710  3705,6740.676,91.794,363.23800000000006,361.844,0.0
51989.0,STARLINK-3642,PAYLOAD,2022-04-04 20:00:01,15.68347898,0.0001119,53.2175,9.7505,95.8869,209.149,-0.0068328,-0.00718474,0.0,0 STARLINK-3642,1 51989U 22025AK  22094.83334491 -.00718474  00000-0 -68328-2 0  9997,2 51989  53.2175   9.7505 0001119  95.8869 209.1490 15.68347898  5414,6741.764,91.816,364.384,362.875,0.0
51989.0,STARLINK-3642,PAYLOAD,2022-04-04 22:00:00,15.68220335,0.0001034,53.2175,9.3413,85.15700000000002,330.6328,-0.0068749,-0.00719037,0.0,0 STARLINK-3642,1 51989U 22025AK  22094.91667824 -.00719037  00000-0 -68749-2 0  9998,2 51989  53.2175   9.3413 0001034  85.1570 330.6328 15.68220335  3712,6742.13,91.824,364.692,363.298,0.0
51989.0,STARLINK-3642,PAYLOAD,2022-04-05 14:00:01,15.67197868,0.0001172,53.2175,6.063,90.4963,130.014,-0.0071162,-0.00714129,0.0,0 STARLINK-3642,1 51989U 22025AK  22095.58335648 -.00714129  00000-0 -71162-2 0  9998,2 51989  53.2175   6.0630 0001172  90.4963 130.0140 15.67197868  3701,6745.062,91.884,367.718,366.137,0.0
51989.0,STARLINK-3642,PAYLOAD,2022-04-05 20:00:01,15.66816209,0.0001255,53.2178,4.836,73.0649,118.4927,-0.0072425,-0.00715469,0.0,0 STARLINK-3642,1 51989U 22025AK  22095.83334491 -.00715469  00000-0 -72425-2 0  9992,2 51989  53.2178   4.8360 0001255  73.0649 118.4927 15.66816209  5565,6746.156999999997,91.906,368.869,367.176,0.0
51989.0,STARLINK-3642,PAYLOAD,2022-04-05 22:00:00,15.66689686,0.0001129,53.2176,4.4277,75.7752,226.0761,-0.0072995,-0.00717213,0.0,0 STARLINK-3642,1 51989U 22025AK  22095.91667824 -.00717213  00000-0 -72995-2 0  9991,2 51989  53.2176   4.4277 0001129  75.7752 226.0761 15.66689686  3703,6746.521,91.914,369.147,367.624,0.0
51989.0,STARLINK-3642,PAYLOAD,2022-04-06 14:00:01,15.65667992,0.0001064,53.2172,1.1569,74.9506,27.8791,-0.0075753999999999,-0.00714369,0.0,0 STARLINK-3642,1 51989U 22025AK  22096.58334491 -.00714369  00000-0 -75754-2 0  9991,2 51989  53.2172   1.1569 0001064  74.9506  27.8791 15.65667992  3696,6749.455,91.974,372.038,370.602,0.0
51989.0,STARLINK-3642,PAYLOAD,2022-04-06 20:00:01,15.65288175,0.0001101,53.2175,359.9327,69.4634,3.0993,-0.0077406,-0.00718504,0.0,0 STARLINK-3642,1 51989U 22025AK  22096.83334491 -.00718504  00000-0 -77406-2 0  9990,2 51989  53.2175 359.9327 0001101  69.4634   3.0993 15.65288175  5726,6750.547,91.996,373.155,371.669,0.0
51989.0,STARLINK-3642,PAYLOAD,2022-04-06 22:00:00,15.651574800000002,0.0001276,53.2173,359.5251,69.7456,112.653,-0.0077194999999999,-0.00713288,0.0,0 STARLINK-3642,1 51989U 22025AK  22096.91667824 -.00713288  00000-0 -77195-2 0  9997,2 51989  53.2173 359.5251 0001276  69.7456 112.6530 15.65157480  3708,6750.9230000000025,92.004,373.649,371.926,0.0
51989.0,STARLINK-3642,PAYLOAD,2022-04-07 14:00:01,15.64137647,0.0001017,53.2173,356.2617,84.2123,255.4873,-0.0080434,-0.00713441,0.0,0 STARLINK-3642,1 51989U 22025AK  22097.58334491 -.00713441  00000-0 -80434-2 0  9993,2 51989  53.2173 356.2617 0001017  84.2123 255.4873 15.64137647  3702,6753.857,92.064,376.409,375.035,0.0
51989.0,STARLINK-3642,PAYLOAD,2022-04-07 20:00:01,15.63758087,0.0001113,53.2177,355.0406,79.5264,228.527,-0.008218,-0.00717653,0.0,0 STARLINK-3642,1 51989U 22025AK  22097.83334491 -.00717653  00000-0 -82180-2 0  9990,2 51989  53.2177 355.0406 0001113  79.5264 228.5270 15.63758087  5888,6754.95,92.086,377.567,376.06300000000016,0.0
51989.0,STARLINK-3642,PAYLOAD,2022-04-07 22:00:00,15.63630342,0.0001118,53.2176,354.634,68.6067,348.8219,-0.0082592,-0.00717609,0.0,0 STARLINK-3642,1 51989U 22025AK  22097.91667824 -.00717609  00000-0 -82592-2 0  9996,2 51989  53.2176 354.6340 0001118  68.6067 348.8219 15.63630342  3682,6755.318,92.093,377.93800000000016,376.42800000000005,0.0
51989.0,STARLINK-3642,PAYLOAD,2022-04-08 14:00:03,15.62609021,0.0001216,53.2172,351.3774,76.0172,135.1666,-0.0085652,-0.00715028,0.0,0 STARLINK-3642,1 51989U 22025AK  22098.58336806 -.00715028  00000-0 -85652-2 0  9996,2 51989  53.2172 351.3774 0001216  76.0172 135.1666 15.62609021  3707,6758.261,92.154,380.948,379.304,0.0
51989.0,STARLINK-3642,PAYLOAD,2022-04-08 20:00:01,15.62226307,0.0001286999999999,53.2175,350.1594,67.6365,110.3935,-0.0086872999999999,-0.00714469,0.0,0 STARLINK-3642,1 51989U 22025AK  22098.83334491 -.00714469  00000-0 -86873-2 0  9996,2 51989  53.2175 350.1594 0001287  67.6365 110.3935 15.62226307  6030,6759.365,92.176,382.1,380.36,0.0
51989.0,STARLINK-3642,PAYLOAD,2022-04-08 22:00:00,15.62098289,0.0001197,53.2174,349.7538,73.6961,213.2493,-0.0087196,-0.00713597,0.0,0 STARLINK-3642,1 51989U 22025AK  22098.91667824 -.00713597  00000-0 -87196-2 0  9994,2 51989  53.2174 349.7538 0001197  73.6961 213.2493 15.62098289  3675,6759.734,92.184,382.408,380.79,0.0
51989.0,STARLINK-3642,PAYLOAD,2022-04-09 14:00:01,15.61079116,0.0001075,53.2172,346.5048,74.0419,2.8512,-0.0091001,-0.00715523,0.0,0 STARLINK-3642,1 51989U 22025AK  22099.58334491 -.00715523  00000-0 -91001-2 0  9990,2 51989  53.2172 346.5048 0001075  74.0419   2.8512 15.61079116  3718,6762.676,92.244,385.268,383.814,0.0
51989.0,STARLINK-3642,PAYLOAD,2022-04-09 20:00:01,15.60698168,0.0001095999999999,53.2175,345.2895,68.3806,334.1092,-0.0092591,-0.00717203,0.0,0 STARLINK-3642,1 51989U 22025AK  22099.83334491 -.00717203  00000-0 -92591-2 0  9990,2 51989  53.2175 345.2895 0001096  68.3806 334.1092 15.60698168  6198,6763.776,92.266,386.382,384.9,0.0
51989.0,STARLINK-3642,PAYLOAD,2022-04-09 22:00:00,15.60568424,0.0001296,53.2171,344.8847,66.0255,84.9211,-0.0092565,-0.00713761,0.0,0 STARLINK-3642,1 51989U 22025AK  22099.91667824 -.00713761  00000-0 -92565-2 0  9994,2 51989  53.2171 344.8847 0001296  66.0255  84.9211 15.60568424  3709,6764.151,92.274,386.893,385.139,0.0
51989.0,STARLINK-3642,PAYLOAD,2022-04-10 14:00:01,15.5954798,0.0001187,53.2173,341.64300000000014,107.9621,189.2558,-0.0096129,-0.00712746,0.0,0 STARLINK-3642,1 51989U 22025AK  22100.58334491 -.00712746  00000-0 -96129-2 0  9993,2 51989  53.2173 341.6430 0001187 107.9621 189.2558 15.59547980  3700,6767.101,92.334,389.77,388.163,0.0
51989.0,STARLINK-3642,PAYLOAD,2022-04-10 20:00:01,15.5916629,0.0001272,53.2177,340.4307,70.235,191.2009,-0.0097632,-0.00713349,0.0,0 STARLINK-3642,1 51989U 22025AK  22100.83334491 -.00713349  00000-0 -97632-2 0  9991,2 51989  53.2177 340.4307 0001272  70.2350 191.2009 15.59166290  6359,6768.206,92.357,390.932,389.21,0.0
51989.0,STARLINK-3642,PAYLOAD,2022-04-10 22:00:00,15.59040241,0.0001165,53.2175,340.0268,63.4742,305.9574,-0.0098501,-0.00715981,0.0,0 STARLINK-3642,1 51989U 22025AK  22100.91667824 -.00715981  00000-0 -98501-2 0  9999,2 51989  53.2175 340.0268 0001165  63.4742 305.9574 15.59040241  3714,6768.571,92.365,391.224,389.647,0.0
51989.0,STARLINK-3642,PAYLOAD,2022-04-11 14:00:01,15.58020337,0.0001255,53.2172,336.7924,68.152,83.8741,-0.010245,-0.00716331,0.0,0 STARLINK-3642,1 51989U 22025AK  22101.58334491 -.00716331  00000-0 -10245-1 0  9992,2 51989  53.2172 336.7924 0001255  68.1520  83.8741 15.58020337  3708,6771.524,92.425,394.239,392.539,0.0
51989.0,STARLINK-3642,PAYLOAD,2022-04-11 22:00:00,15.5750848,0.0001354,53.2173,335.1799,66.4941,155.9092,-0.010394,-0.00713127,0.0,0 STARLINK-3642,1 51989U 22025AK  22101.91667824 -.00713127  00000-0 -10394-1 0  9993,2 51989  53.2173 335.1799 0001354  66.4941 155.9092 15.57508480  3686,6773.0080000000025,92.455,395.79,393.956,0.0
